[{"OBJECT_NAME":"LEMUR-2-JK0903EM1407","OBJECT_ID":"2023-174CJ","EPOCH":"2026-03-03T18:49:37.583328","MEAN_MOTION":15.46305077,"ECCENTRICITY":0.00062644,"INCLINATION":97.393,"RA_OF_ASC_NODE":150.7439,"ARG_OF_PERICENTER":135.2759,"MEAN_ANOMALY":224.8997,"EPHEMERIS_TYPE":0,"CLASSIFICATION_TYPE":"U","NORAD_CAT_ID":58336,"ELEMENT_SET_NO":999,"REV_AT_EPOCH":12941,"BSTAR":0.00069774814,"MEAN_MOTION_DOT":0.0003443,"MEAN_MOTION_DDOT":0},{"OBJECT_NAME":"LEMUR-2-MJR092620","OBJECT_ID":"2023-174CN","EPOCH":"2026-03-03T19:08:06.395136","MEAN_MOTION":15.41941468,"ECCENTRICITY":0.00080771,"INCLINATION":97.4001,"RA_OF_ASC_NODE":151.1441,"ARG_OF_PERICENTER":133.0195,"MEAN_ANOMALY":227.173,"EPHEMERIS_TYPE":0,"CLASSIFICATION_TYPE":"U","NORAD_CAT_ID":58340,"ELEMENT_SET_NO":999,"REV_AT_EPOCH":12939,"BSTAR":0.0004049452,"MEAN_MOTION_DOT":0.00017175,"MEAN_MOTION_DDOT":0},{"OBJECT_NAME":"LEMUR-2-NIMBUS2000","OBJECT_ID":"2024-022A","EPOCH":"2026-03-03T13:41:07.387296","MEAN_MOTION":15.36492065,"ECCENTRICITY":0.0010399,"INCLINATION":97.423,"RA_OF_ASC_NODE":271.4279,"ARG_OF_PERICENTER":133.2157,"MEAN_ANOMALY":226.9957,"EPHEMERIS_TYPE":0,"CLASSIFICATION_TYPE":"U","NORAD_CAT_ID":58899,"ELEMENT_SET_NO":999,"REV_AT_EPOCH":11603,"BSTAR":0.00061825,"MEAN_MOTION_DOT":0.00022008,"MEAN_MOTION_DDOT":0},{"OBJECT_NAME":"LEMUR-2-VALHALLA","OBJECT_ID":"2024-022B","EPOCH":"2026-03-03T22:32:30.457824","MEAN_MOTION":15.36272203,"ECCENTRICITY":0.00110509,"INCLINATION":97.4226,"RA_OF_ASC_NODE":271.8361,"ARG_OF_PERICENTER":128.1055,"MEAN_ANOMALY":232.1187,"EPHEMERIS_TYPE":0,"CLASSIFICATION_TYPE":"U","NORAD_CAT_ID":58900,"ELEMENT_SET_NO":999,"REV_AT_EPOCH":11609,"BSTAR":0.00069138281,"MEAN_MOTION_DOT":0.00024461,"MEAN_MOTION_DDOT":0},{"OBJECT_NAME":"LEMUR-2-OBA-NI-JESU","OBJECT_ID":"2024-022D","EPOCH":"2026-03-03T12:40:05.402784","MEAN_MOTION":15.63960727,"ECCENTRICITY":0.0005198,"INCLINATION":97.407,"RA_OF_ASC_NODE":280.2755,"ARG_OF_PERICENTER":88.2727,"MEAN_ANOMALY":271.9127,"EPHEMERIS_TYPE":0,"CLASSIFICATION_TYPE":"U","NORAD_CAT_ID":58902,"ELEMENT_SET_NO":999,"REV_AT_EPOCH":11663,"BSTAR":0.001209,"MEAN_MOTION_DOT":0.00115127,"MEAN_MOTION_DDOT":0},{"OBJECT_NAME":"LEMUR-2-CAEL","OBJECT_ID":"2024-022E","EPOCH":"2026-03-03T12:15:15.075360","MEAN_MOTION":15.37386205,"ECCENTRICITY":0.00094054,"INCLINATION":97.4214,"RA_OF_ASC_NODE":272.1675,"ARG_OF_PERICENTER":113.5647,"MEAN_ANOMALY":246.6587,"EPHEMERIS_TYPE":0,"CLASSIFICATION_TYPE":"U","NORAD_CAT_ID":58903,"ELEMENT_SET_NO":999,"REV_AT_EPOCH":11608,"BSTAR":0.00057205016,"MEAN_MOTION_DOT":0.00020943,"MEAN_MOTION_DDOT":0},{"OBJECT_NAME":"LEMUR-2-JOHNNYTRUONG","OBJECT_ID":"2024-043BA","EPOCH":"2026-03-03T09:38:20.163264","MEAN_MOTION":15.52547361,"ECCENTRICITY":0.00053177,"INCLINATION":97.5247,"RA_OF_ASC_NODE":208.2639,"ARG_OF_PERICENTER":206.3305,"MEAN_ANOMALY":153.7678,"EPHEMERIS_TYPE":0,"CLASSIFICATION_TYPE":"U","NORAD_CAT_ID":59146,"ELEMENT_SET_NO":999,"REV_AT_EPOCH":11158,"BSTAR":0.00073507409,"MEAN_MOTION_DOT":0.00045208,"MEAN_MOTION_DDOT":0},{"OBJECT_NAME":"LEMUR-2-TOMATOKECHUP","OBJECT_ID":"2024-149D","EPOCH":"2026-03-03T18:07:06.820320","MEAN_MOTION":15.33567823,"ECCENTRICITY":9.338e-5,"INCLINATION":97.3858,"RA_OF_ASC_NODE":144.6993,"ARG_OF_PERICENTER":204.1628,"MEAN_ANOMALY":155.9571,"EPHEMERIS_TYPE":0,"CLASSIFICATION_TYPE":"U","NORAD_CAT_ID":60471,"ELEMENT_SET_NO":999,"REV_AT_EPOCH":8599,"BSTAR":0.00049426586,"MEAN_MOTION_DOT":0.00015976,"MEAN_MOTION_DDOT":0},{"OBJECT_NAME":"LEMUR-2-STELLA","OBJECT_ID":"2024-149BT","EPOCH":"2026-03-03T21:25:25.364352","MEAN_MOTION":15.09271659,"ECCENTRICITY":0.00015796,"INCLINATION":97.679,"RA_OF_ASC_NODE":145.0715,"ARG_OF_PERICENTER":95.0034,"MEAN_ANOMALY":265.1374,"EPHEMERIS_TYPE":0,"CLASSIFICATION_TYPE":"U","NORAD_CAT_ID":60533,"ELEMENT_SET_NO":999,"REV_AT_EPOCH":8460,"BSTAR":0.0011529405,"MEAN_MOTION_DOT":0.00018332,"MEAN_MOTION_DDOT":0},{"OBJECT_NAME":"LEMUR-2-MARHISYAM","OBJECT_ID":"2024-149BW","EPOCH":"2026-03-03T18:31:47.830368","MEAN_MOTION":15.08817989,"ECCENTRICITY":0.00032553,"INCLINATION":97.6929,"RA_OF_ASC_NODE":145.2844,"ARG_OF_PERICENTER":121.6444,"MEAN_ANOMALY":238.5102,"EPHEMERIS_TYPE":0,"CLASSIFICATION_TYPE":"U","NORAD_CAT_ID":60536,"ELEMENT_SET_NO":999,"REV_AT_EPOCH":8457,"BSTAR":0.0011159536,"MEAN_MOTION_DOT":0.00017523,"MEAN_MOTION_DDOT":0},{"OBJECT_NAME":"LEMUR-2-AHMED-ASRAR","OBJECT_ID":"2024-149DN","EPOCH":"2026-03-03T18:28:26.762880","MEAN_MOTION":15.10184044,"ECCENTRICITY":0.0002134,"INCLINATION":97.7044,"RA_OF_ASC_NODE":146.987,"ARG_OF_PERICENTER":38.5352,"MEAN_ANOMALY":321.6029,"EPHEMERIS_TYPE":0,"CLASSIFICATION_TYPE":"U","NORAD_CAT_ID":60576,"ELEMENT_SET_NO":999,"REV_AT_EPOCH":8464,"BSTAR":0.0010354767,"MEAN_MOTION_DOT":0.00016872,"MEAN_MOTION_DDOT":0},{"OBJECT_NAME":"LEMUR-2-LLOYD","OBJECT_ID":"2024-149DP","EPOCH":"2026-03-03T18:00:04.618080","MEAN_MOTION":15.07000673,"ECCENTRICITY":0.00052211,"INCLINATION":97.6809,"RA_OF_ASC_NODE":143.9805,"ARG_OF_PERICENTER":138.9222,"MEAN_ANOMALY":221.2399,"EPHEMERIS_TYPE":0,"CLASSIFICATION_TYPE":"U","NORAD_CAT_ID":60577,"ELEMENT_SET_NO":999,"REV_AT_EPOCH":8450,"BSTAR":0.00097857125,"MEAN_MOTION_DOT":0.00014614,"MEAN_MOTION_DDOT":0},{"OBJECT_NAME":"LEMUR-2-SQUIRRELCOMM","OBJECT_ID":"2024-149DQ","EPOCH":"2026-03-03T18:43:10.468128","MEAN_MOTION":15.05760817,"ECCENTRICITY":0.00062379,"INCLINATION":97.6758,"RA_OF_ASC_NODE":144.1121,"ARG_OF_PERICENTER":59.049,"MEAN_ANOMALY":301.1349,"EPHEMERIS_TYPE":0,"CLASSIFICATION_TYPE":"U","NORAD_CAT_ID":60578,"ELEMENT_SET_NO":999,"REV_AT_EPOCH":8453,"BSTAR":0.00069993694,"MEAN_MOTION_DOT":0.00010086,"MEAN_MOTION_DDOT":0},{"OBJECT_NAME":"LEMUR-2-SIERRINI","OBJECT_ID":"2024-149DR","EPOCH":"2026-03-03T18:33:04.337568","MEAN_MOTION":15.08478838,"ECCENTRICITY":0.00061194,"INCLINATION":97.6891,"RA_OF_ASC_NODE":145.0788,"ARG_OF_PERICENTER":168.0112,"MEAN_ANOMALY":192.1263,"EPHEMERIS_TYPE":0,"CLASSIFICATION_TYPE":"U","NORAD_CAT_ID":60579,"ELEMENT_SET_NO":999,"REV_AT_EPOCH":8455,"BSTAR":0.001101657,"MEAN_MOTION_DOT":0.00017142,"MEAN_MOTION_DDOT":0},{"OBJECT_NAME":"LEMUR-2-WILSON","OBJECT_ID":"2025-009CP","EPOCH":"2026-03-03T19:21:46.047744","MEAN_MOTION":14.94635702,"ECCENTRICITY":0.00038782,"INCLINATION":97.7083,"RA_OF_ASC_NODE":143.1394,"ARG_OF_PERICENTER":48.658,"MEAN_ANOMALY":311.4974,"EPHEMERIS_TYPE":0,"CLASSIFICATION_TYPE":"U","NORAD_CAT_ID":62694,"ELEMENT_SET_NO":999,"REV_AT_EPOCH":6161,"BSTAR":0.00032935287,"MEAN_MOTION_DOT":3.512e-5,"MEAN_MOTION_DDOT":0},{"OBJECT_NAME":"LEMUR-2-STAR-FOX","OBJECT_ID":"2025-009CR","EPOCH":"2026-03-03T17:53:29.231808","MEAN_MOTION":15.00730705,"ECCENTRICITY":0.00021909,"INCLINATION":97.7064,"RA_OF_ASC_NODE":145.2391,"ARG_OF_PERICENTER":164.6433,"MEAN_ANOMALY":195.4858,"EPHEMERIS_TYPE":0,"CLASSIFICATION_TYPE":"U","NORAD_CAT_ID":62696,"ELEMENT_SET_NO":999,"REV_AT_EPOCH":6173,"BSTAR":0.0011202146,"MEAN_MOTION_DOT":0.0001416,"MEAN_MOTION_DDOT":0}]
