LEMUR-2-JK0903EM1407    
1 58336U 23174CJ  26062.78446277  .00034430  00000+0  69775-3 0  9993
2 58336  97.3930 150.7439 0006264 135.2759 224.8997 15.46305077129413
LEMUR-2-MJR092620       
1 58340U 23174CN  26062.79729624  .00017175  00000+0  40495-3 0  9994
2 58340  97.4001 151.1441 0008077 133.0195 227.1730 15.41941468129393
LEMUR-2-NIMBUS2000      
1 58899U 24022A   26062.57022439  .00022008  00000+0  61825-3 0  9993
2 58899  97.4230 271.4279 0010399 133.2157 226.9957 15.36492065116034
LEMUR-2-VALHALLA        
1 58900U 24022B   26062.93924141  .00024461  00000+0  69138-3 0  9997
2 58900  97.4226 271.8361 0011050 128.1055 232.1187 15.36272203116093
LEMUR-2-OBA-NI-JESU     
1 58902U 24022D   26062.52784031  .00115127  00000+0  12090-2 0  9990
2 58902  97.4070 280.2755 0005198  88.2727 271.9127 15.63960727116631
LEMUR-2-CAEL            
1 58903U 24022E   26062.51059115  .00020943  00000+0  57205-3 0  9997
2 58903  97.4214 272.1675 0009405 113.5647 246.6587 15.37386205116083
LEMUR-2-JOHNNYTRUONG    
1 59146U 24043BA  26062.40162226  .00045208  00000+0  73507-3 0  9990
2 59146  97.5247 208.2639 0005317 206.3305 153.7678 15.52547361111588
LEMUR-2-TOMATOKECHUP    
1 60471U 24149D   26062.75494005  .00015976  00000+0  49427-3 0  9994
2 60471  97.3858 144.6993 0000933 204.1628 155.9571 15.33567823 85991
LEMUR-2-STELLA          
1 60533U 24149BT  26062.89265468  .00018332  00000+0  11529-2 0  9997
2 60533  97.6790 145.0715 0001579  95.0034 265.1374 15.09271659 84604
LEMUR-2-MARHISYAM       
1 60536U 24149BW  26062.77208137  .00017523  00000+0  11160-2 0  9999
2 60536  97.6929 145.2844 0003255 121.6444 238.5102 15.08817989 84570
LEMUR-2-AHMED-ASRAR     
1 60576U 24149DN  26062.76975420  .00016872  00000+0  10355-2 0  9999
2 60576  97.7044 146.9870 0002134  38.5352 321.6029 15.10184044 84641
LEMUR-2-LLOYD           
1 60577U 24149DP  26062.75005345  .00014614  00000+0  97857-3 0  9994
2 60577  97.6809 143.9805 0005221 138.9222 221.2399 15.07000673 84507
LEMUR-2-SQUIRRELCOMM    
1 60578U 24149DQ  26062.77998227  .00010086  00000+0  69994-3 0  9997
2 60578  97.6758 144.1121 0006237  59.0490 301.1349 15.05760817 84530
LEMUR-2-SIERRINI        
1 60579U 24149DR  26062.77296687  .00017142  00000+0  11017-2 0  9991
2 60579  97.6891 145.0788 0006119 168.0112 192.1263 15.08478838 84556
LEMUR-2-WILSON          
1 62694U 25009CP  26062.80678296  .00003512  00000+0  32935-3 0  9990
2 62694  97.7083 143.1394 0003878  48.6580 311.4974 14.94635702 61619
LEMUR-2-STAR-FOX        
1 62696U 25009CR  26062.74547722  .00014160  00000+0  11202-2 0  9998
2 62696  97.7064 145.2391 0002190 164.6433 195.4858 15.00730705 61733
